OBJECT_NAME,OBJECT_ID,EPOCH,MEAN_MOTION,ECCENTRICITY,INCLINATION,RA_OF_ASC_NODE,ARG_OF_PERICENTER,MEAN_ANOMALY,EPHEMERIS_TYPE,CLASSIFICATION_TYPE,NORAD_CAT_ID,ELEMENT_SET_NO,REV_AT_EPOCH,BSTAR,MEAN_MOTION_DOT,MEAN_MOTION_DDOT
STARLINK-3740,2022-041E,2023-11-12T07:14:29.738976,15.08842449,.0001407,53.2163,317.6817,92.7787,267.3366,0,U,52265,999,8628,.1663E-3,.236E-4,0
STARLINK-3739,2022-041F,2023-11-12T07:09:11.936448,15.08843938,.0001641,53.2170,317.6999,94.9380,265.1799,0,U,52266,999,8628,.21372E-3,.3115E-4,0
STARLINK-3748,2022-041G,2023-11-12T07:03:53.850528,15.08836629,.0001761,53.2168,317.7189,96.4255,263.6937,0,U,52267,999,8628,.68828E-3,.10682E-3,0
STARLINK-3746,2022-041H,2023-11-12T09:48:09.683424,15.08842500,.0001614,53.2158,317.1286,104.1475,255.9696,0,U,52268,999,8630,.50383E-3,.774E-4,0
STARLINK-3791,2022-041J,2023-11-12T10:09:22.109184,15.08843204,.0001701,53.2180,317.1350,93.0441,267.0745,0,U,52269,999,8630,.10984E-3,.1461E-4,0
STARLINK-3804,2022-041K,2023-11-12T09:58:46.290720,15.08853601,.0001526,53.2159,317.2005,92.0748,268.0419,0,U,52270,999,8630,.30749E-3,.4611E-4,0
STARLINK-3788,2022-041L,2023-11-12T06:53:17.868768,15.08850242,.0001525,53.2156,317.7489,90.1032,270.0135,0,U,52271,999,8628,.40899E-3,.6229E-4,0
STARLINK-3781,2022-041M,2023-11-12T09:54:51.308640,15.08852020,.0001742,53.2165,317.2205,97.9705,262.1485,0,U,52272,999,8630,.34652E-3,.5233E-4,0
STARLINK-3782,2022-041N,2023-11-12T09:13:50.968416,15.08842240,.0001525,53.2162,307.6932,96.0783,264.0383,0,U,52273,999,8643,.22832E-3,.3348E-4,0
STARLINK-3790,2022-041P,2023-11-12T06:32:06.129888,15.08847450,.0001574,53.2160,317.8158,96.9529,263.1642,0,U,52274,999,8628,.25803E-3,.3822E-4,0
STARLINK-3784,2022-041Q,2023-11-12T09:53:28.387968,15.08841766,.0001483,53.2168,317.1886,96.2696,263.8465,0,U,52275,999,8630,.99839E-4,.1301E-4,0
STARLINK-3778,2022-041R,2023-11-12T09:37:34.599360,15.08840379,.0001736,53.2176,317.2350,94.4460,265.6730,0,U,52276,999,8630,.10381E-3,.1364E-4,0
STARLINK-3787,2022-041S,2023-11-12T08:18:04.506336,15.48241466,.0010429,53.2176,288.9193,83.6391,276.5806,0,U,52277,999,8670,.34096E-2,.186967E-2,0
STARLINK-3780,2022-041T,2023-11-12T17:29:13.331328,15.08837935,.0001564,53.2177,315.7673,86.8386,273.2785,0,U,52278,999,8757,.1096E-3,.1457E-4,0
STARLINK-3686,2022-041U,2023-11-12T14:58:10.134624,15.40809953,.0006227,53.2268,285.2874,113.6433,246.5227,0,U,52279,999,8800,.28746E-2,.121149E-2,0
STARLINK-3764,2022-041V,2023-11-12T09:16:22.067328,15.08854256,.0001541,53.2183,317.3026,95.1121,265.0047,0,U,52280,999,8630,.1456E-4,-.56E-6,0
STARLINK-3779,2022-041W,2023-11-12T09:38:57.074208,15.08845876,.0001654,53.2169,317.2284,90.5707,269.5475,0,U,52281,999,8630,.12364E-3,.1681E-4,0
STARLINK-3783,2022-041X,2023-11-12T17:04:01.967232,15.08843788,.0001631,53.2159,305.8447,89.6263,270.4916,0,U,52282,999,8770,.376E-3,.5702E-4,0
STARLINK-3789,2022-041Y,2023-11-12T09:26:58.783488,15.08840497,.0001711,53.2176,317.2703,85.9967,274.1221,0,U,52283,999,8630,.19164E-3,.2763E-4,0
STARLINK-3561,2022-041Z,2023-11-12T07:21:07.308576,15.08840156,.000162,53.2162,307.6627,85.0186,275.0991,0,U,52284,999,8642,.15306E-3,.2149E-4,0
STARLINK-3775,2022-041AA,2023-11-12T09:21:40.834944,15.08841852,.0001896,53.2178,317.2866,87.9502,272.1708,0,U,52285,999,8630,.15001E-3,.21E-4,0
STARLINK-3802,2022-041AB,2023-11-12T08:45:54.652896,15.08843888,.0001761,53.2167,307.3991,86.6129,273.5065,0,U,52286,999,8643,.30832E-3,.4623E-4,0
STARLINK-3822,2022-041AC,2023-11-12T17:08:01.866336,15.08828611,.0001627,53.2162,315.8327,87.8519,272.2659,0,U,52287,999,8757,.38822E-4,.33E-5,0
STARLINK-3776,2022-041AD,2023-11-12T08:40:36.204960,15.08846497,.0001372,53.2170,307.4150,90.6728,269.4421,0,U,52288,999,8643,.20415E-3,.2963E-4,0
STARLINK-3751,2022-041AE,2023-11-12T09:01:48.413856,15.08843339,.0001532,53.2162,307.3477,82.2692,277.8474,0,U,52289,999,8643,.17145E-3,.2442E-4,0
STARLINK-3772,2022-041AF,2023-11-12T06:50:42.293472,15.08837037,.000161,53.2164,307.7593,99.8375,260.2799,0,U,52290,999,8642,.95311E-4,.1229E-4,0
STARLINK-3773,2022-041AG,2023-11-12T16:48:08.173440,15.08848676,.0001602,53.2169,305.8930,92.2953,267.8222,0,U,52291,999,8770,.61068E-3,.9447E-4,0
STARLINK-3753,2022-041AH,2023-11-12T06:44:01.301568,15.08843532,.0001819,53.2183,307.7802,101.1774,258.9423,0,U,52292,999,8642,.15834E-3,.2233E-4,0
STARLINK-3771,2022-041AJ,2023-11-12T08:36:41.907168,15.08833884,.0001625,53.2204,307.4377,89.6831,270.4347,0,U,52293,999,8643,.83913E-4,.1047E-4,0
STARLINK-3777,2022-041AK,2023-11-12T16:11:03.744096,15.08829193,.0001654,53.2175,306.0116,102.4230,257.6947,0,U,52294,999,8770,.13405E-3,.1845E-4,0
STARLINK-3765,2022-041AL,2023-11-12T06:54:37.765440,15.08829708,.000128,53.2168,307.7411,83.0755,277.0383,0,U,52295,999,8642,-.15381E-3,-.2734E-4,0
STARLINK-3766,2022-041AM,2023-11-12T06:22:49.892736,15.08841201,.0001886,53.2165,307.8462,90.4533,269.6675,0,U,52296,999,8642,.17552E-3,.2506E-4,0
STARLINK-3758,2022-041AN,2023-11-12T16:21:38.200032,15.08840326,.0001681,53.2163,305.9760,93.5129,266.6055,0,U,52297,999,8770,.6889E-4,.809E-5,0
STARLINK-3760,2022-041AP,2023-11-12T16:32:10.349952,15.08847390,.0001585,53.2166,305.5567,88.0832,272.0341,0,U,52298,999,8770,.16445E-3,.2331E-4,0
STARLINK-3759,2022-041AQ,2023-11-12T04:52:44.633568,15.08839846,.0001898,53.2165,308.1236,96.5128,263.6080,0,U,52299,999,8641,.90688E-4,.1155E-4,0
STARLINK-3769,2022-041AR,2023-11-12T09:17:41.926848,15.08851943,.0001591,53.2162,307.2995,100.3361,259.7811,0,U,52300,999,8766,.38647E-3,.587E-4,0
STARLINK-3768,2022-041AS,2023-11-12T09:44:11.463072,15.08843721,.0001628,53.2178,307.2153,92.8015,267.3163,0,U,52301,999,8644,.77142E-4,.94E-5,0
STARLINK-3564,2022-041AT,2023-11-12T05:52:21.552096,15.08840068,.0001223,53.2172,297.9355,93.1197,266.9935,0,U,52302,999,8655,.23567E-3,.3465E-4,0
STARLINK-3742,2022-041AU,2023-11-12T09:22:59.710368,15.08850139,.0001751,53.2166,307.2832,93.8567,266.2625,0,U,52303,999,8766,.18253E-3,.2619E-4,0
STARLINK-3744,2022-041AV,2023-11-12T04:11:40.395840,15.08845639,.0001659,53.2158,298.2538,92.8915,267.2267,0,U,52304,999,8654,.33523E-3,.5052E-4,0
STARLINK-3724,2022-041AW,2023-11-12T09:28:18.651648,15.08851213,.0001502,53.2187,307.3688,107.4912,252.6245,0,U,52305,999,8644,-.12937E-3,-.2347E-4,0
STARLINK-3747,2022-041AX,2023-11-12T05:41:45.547008,15.08842467,.0001616,53.2172,297.9730,84.7060,275.4117,0,U,52306,999,8777,.17288E-3,.2465E-4,0
STARLINK-3755,2022-041AY,2023-11-12T06:01:37.742592,15.08847315,.0001586,53.2163,307.9093,94.7640,265.3533,0,U,52307,999,8642,.21656E-3,.3161E-4,0
STARLINK-3756,2022-041BA,2023-11-12T08:47:13.772832,15.08843597,.0001857,53.2171,297.3952,95.6771,264.4433,0,U,52309,999,8779,.11438E-3,.1533E-4,0
STARLINK-3688,2022-041BB,2023-11-12T08:41:56.321088,15.08850803,.0001542,53.2163,297.4725,102.0778,258.0387,0,U,52310,999,8779,.26864E-3,.3991E-4,0
STARLINK-3750,2022-041BC,2023-11-12T08:36:37.625184,15.08852062,.0001576,53.2164,297.4260,98.8368,261.2803,0,U,52311,999,8779,.34702E-3,.5241E-4,0
STARLINK-3752,2022-041BD,2023-11-12T06:02:57.168384,15.08837409,.0001967,53.2190,297.8612,111.3191,248.8011,0,U,52312,999,8778,.23295E-4,.83E-6,0
STARLINK-3749,2022-041BE,2023-11-12T18:51:20.274048,15.08842644,.0001742,53.2161,295.5119,90.8728,269.2463,0,U,52313,999,8786,.80398E-4,.992E-5,0
SUPERVIEW NEO-1 01,2022-043A,2023-11-12T19:29:47.478912,15.22741420,.0001902,97.4299,34.4302,93.3398,266.8056,0,U,52320,999,8571,.62056E-3,.14428E-3,0
SUPERVIEW NEO-1 02,2022-043C,2023-11-12T18:44:30.534144,15.22778957,.0001381,97.4295,34.4600,87.5427,272.5968,0,U,52322,999,8572,.66248E-3,.15426E-3,0
STARLINK-3889,2022-045A,2023-11-12T13:49:16.809600,15.08844419,.0001482,53.2170,56.4510,90.9186,269.1976,0,U,52331,999,8760,.58163E-4,.638E-5,0
STARLINK-3831,2022-045B,2023-11-12T14:06:33.801408,15.08840731,.0001414,53.2193,56.4108,101.1425,258.9726,0,U,52332,999,8760,.47876E-4,.474E-5,0
STARLINK-3847,2022-045C,2023-11-12T13:59:54.540096,15.08808364,.0001931,53.2187,56.4229,84.0147,276.1066,0,U,52333,999,8759,.11756E-2,.18455E-3,0
STARLINK-3880,2022-045D,2023-11-12T13:43:59.124576,15.08845121,.00014,53.2167,56.4688,84.9427,275.1725,0,U,52334,999,8759,.24783E-3,.3659E-4,0
STARLINK-3814,2022-045E,2023-11-12T13:38:41.025696,15.08843963,.000144,53.2172,56.4841,90.3941,269.7216,0,U,52335,999,8760,.14754E-3,.2061E-4,0
STARLINK-3823,2022-045F,2023-11-12T16:12:17.632512,15.08867853,.0001435,53.2164,55.8034,88.2060,271.9097,0,U,52336,999,8762,.41857E-3,.6385E-4,0
STARLINK-3797,2022-045G,2023-11-12T13:54:31.719456,15.08880786,.0001471,53.2178,56.4349,88.8324,271.2837,0,U,52337,999,8760,.34305E-3,.5182E-4,0
STARLINK-3815,2022-045H,2023-11-12T16:30:03.523392,15.14238841,.0002426,53.2191,42.1255,78.5031,281.6236,0,U,52338,999,8782,.40245E-3,.7145E-4,0
STARLINK-3792,2022-045J,2023-11-12T14:05:07.162080,15.08844358,.0001443,53.2167,56.0451,89.6609,270.4549,0,U,52339,999,8761,.16977E-3,.2415E-4,0
STARLINK-3818,2022-045K,2023-11-12T12:25:49.521792,15.08841222,.0001359,53.2185,46.7144,84.1251,275.9897,0,U,52340,999,8772,.11341E-3,.1518E-4,0
STARLINK-3843,2022-045L,2023-11-12T13:17:28.663008,15.08843687,.000146,53.2169,56.5015,94.0582,266.0577,0,U,52341,999,8760,.83993E-4,.1049E-4,0
STARLINK-3850,2022-045M,2023-11-12T12:31:08.412960,15.08844326,.0001448,53.2173,46.8121,87.1203,272.9954,0,U,52342,999,8773,.14301E-3,.1989E-4,0
STARLINK-3849,2022-045N,2023-11-12T12:35:05.877312,15.08836615,.0001658,53.2171,56.6836,87.7368,272.3814,0,U,52343,999,8760,.29094E-4,.175E-5,0
STARLINK-3851,2022-045P,2023-11-12T13:50:37.280832,15.08842468,.0001559,53.2193,46.5123,79.5161,280.6006,0,U,52344,999,8774,.69928E-4,.825E-5,0
STARLINK-3852,2022-045Q,2023-11-12T16:04:29.194176,15.08840170,.0001156,53.2180,46.1934,90.1744,269.9381,0,U,52345,999,8774,.52366E-5,-.204E-5,0
